STARLINK-31132          
1 58777U 24011N   26068.84987925 -.00000284  00000+0  25388-5 0  9991
2 58777  53.1604 282.7891 0001185 105.6376 254.4755 15.30186472121581
LIZZIESAT-2 (LS-2)      
1 62383U 24247G   26068.49140277  .00009388  00000+0  34517-3 0  9997
2 62383  44.9909 117.0823 0004092 327.5136  32.5495 15.28222796 67716
